INTELSAT 9 (IS-9)       
1 26451U 00043A   25128.94296156 -.00000008  00000+0  00000+0 0  9992
2 26451   9.4990  52.8525 0004313   6.2502 213.6137  1.00273489 40083
INTELSAT 10 (IS-10)     
1 26766U 01019A   25128.98447782 -.00000001  00000+0  00000+0 0  9995
2 26766   8.1086  63.3739 0004413 335.7422 248.4411  1.00271303 41568
INTELSAT 901 (IS-901)   
1 26824U 01024A   25128.90875177 -.00000231  00000+0  00000+0 0  9996
2 26824   0.1973  93.5891 0003866 343.3842 251.1500  0.98821407 18922
INTELSAT 902 (IS-902)   
1 26900U 01039A   25125.29628258 -.00000288  00000+0  00000+0 0  9994
2 26900   5.0855  76.7567 0004440 324.3666 238.8600  1.00270013 86603
INTELSAT 904 (IS-904)   
1 27380U 02007A   25129.23326510 -.00000205  00000+0  00000+0 0  9996
2 27380   5.9087  74.0134 0003049 329.4393 238.3169  1.00272717 47717
DIRECTV 5 (TEMPO 1)     
1 27426U 02023A   25129.57539620 -.00000047  00000+0  00000+0 0  9994
2 27426   3.8454  80.3588 0003506 335.1284 269.1676  1.00272208 84257
INTELSAT 905 (IS-905)   
1 27438U 02027A   25128.99783447  .00000107  00000+0  00000+0 0  9990
2 27438   5.7366  74.6542 0004100 342.2288  32.5108  1.00210096 47318
GALAXY 3C (G-3C)        
1 27445U 02030A   25129.27478747 -.00000144  00000+0  00000+0 0  9990
2 27445   2.6903  83.0964 0003002  42.2456 106.0732  1.00272190 42447
INTELSAT 906 (IS-906)   
1 27513U 02041A   25129.46605873  .00000023  00000+0  00000+0 0  9996
2 27513   4.7760  77.8967 0003365 347.3846  34.1757  1.00272129 82922
GALAXY 23 (G-23)        
1 27854U 03034A   25129.56959786  .00000022  00000+0  00000+0 0  9992
2 27854   2.1540  84.7000 0002669 328.9859 258.1189  1.00271072 84507
GALAXY 13 (HORIZONS-1)  
1 27954U 03044A   25129.49498469  .00000141  00000+0  00000+0 0  9994
2 27954   0.3742  90.2358 0002020 311.7274 213.7963  1.00269443 79108
INTELSAT 10-02          
1 28358U 04022A   25129.23899920 -.00000005  00000+0  00000+0 0  9999
2 28358   0.0247  68.5240 0001136 353.2070 250.5965  1.00269857 76505
XM-3 (RHYTHM)           
1 28626U 05008A   25129.22205753 -.00000192  00000+0  00000+0 0  9993
2 28626   0.0107 315.4288 0001930 215.9854  49.4519  1.00270012 38570
DIRECTV 8               
1 28659U 05019A   25129.57072362  .00000009  00000+0  00000+0 0  9993
2 28659   0.0177 285.3258 0003188 131.7758 256.9462  1.00271826 73137
GALAXY 28 (G-28)        
1 28702U 05022A   25129.28107527 -.00000178  00000+0  00000+0 0  9994
2 28702   2.2578  83.9587 0001204 320.5860 195.2853  1.00272004 47938
GALAXY 16 (G-16)        
1 29236U 06023A   25129.21953800 -.00000119  00000+0  00000+0 0  9990
2 29236   0.0150 150.7828 0002846 255.7850 160.7353  1.00270243 68922
DIRECTV 9S              
1 29494U 06043A   25129.25721782 -.00000105  00000+0  00000+0 0  9999
2 29494   1.3780  85.8276 0003182 328.1279 164.7756  1.00272524 47337
GALAXY 17 (G-17)        
1 31307U 07016B   25129.22231817 -.00000198  00000+0  00000+0 0  9990
2 31307   1.9495  85.0597 0000680  41.6536  95.6059  1.00272025 65753
DIRECTV 10              
1 31862U 07032A   25129.00461113 -.00000097  00000+0  00000+0 0  9992
2 31862   0.0033  68.0006 0000260 277.9355 140.0042  1.00271534 41542
INTELSAT 11 (IS-11)     
1 32253U 07044B   25129.04553177 -.00000097  00000+0  00000+0 0  9996
2 32253   2.5128  83.6656 0000930  22.9637 240.4783  0.99045887 64446
HORIZONS-2              
1 32388U 07063B   25129.29362926 -.00000245  00000+0  00000+0 0  9998
2 32388   1.5597  85.6545 0002065 325.0262 208.5947  1.00272338 63762
DIRECTV 11              
1 32729U 08013A   25128.93394707 -.00000120  00000+0  00000+0 0  9997
2 32729   0.0032  26.0418 0000423 300.7659 137.2266  1.00270477 62889
GALAXY 18 (G-18)        
1 32951U 08024A   25129.28064310  .00000032  00000+0  00000+0 0  9990
2 32951   0.0026 359.4711 0003409  60.7258 145.1736  1.00273122 41802
INTELSAT 25 (IS-25)     
1 33153U 08034A   25129.23291758 -.00000216  00000+0  00000+0 0  9994
2 33153   1.6663  85.3178 0003069 319.8952 234.4330  1.00272771 61649
GALAXY 19 (G-19)        
1 33376U 08045A   25129.21997240 -.00000132  00000+0  00000+0 0  9997
2 33376   0.0022 340.6423 0002826  64.9964 163.8349  1.00272515 60852
FM-5                    
1 35493U 09034A   25129.00791258 -.00000194  00000+0  00000+0 0  9994
2 35493   0.0120 277.3551 0000787 299.9465 286.4610  1.00272181 42594
INTELSAT 14 (IS-14)     
1 36097U 09064A   25129.44442551 -.00000266  00000+0  00000+0 0  9995
2 36097   0.0112 299.2668 0002523 105.4083 297.8353  1.00272486 56644
INTELSAT 15 (IS-15)     
1 36106U 09067A   25129.04188280 -.00000179  00000+0  00000+0 0  9994
2 36106   0.0090 303.6363 0002434 110.9971 272.6937  1.00270097 37172
DIRECTV 12              
1 36131U 09075A   25129.50433956 -.00000095  00000+0  00000+0 0  9992
2 36131   0.0015  70.8893 0000335 322.7862 272.7352  1.00270738 56331
INTELSAT 16 (IS-16)     
1 36397U 10006A   25129.21086477 -.00000238  00000+0  00000+0 0  9991
2 36397   0.0282  84.4601 0002404 353.3937 149.1274  1.00273123 55667
XM-5                    
1 37185U 10053A   25129.57252324 -.00000015  00000+0  00000+0 0  9997
2 37185   0.0284 277.6931 0002486 276.4367 124.4131  1.00272437 53392
INTELSAT 17 (IS-17)     
1 37238U 10065B   25129.10952019  .00000004  00000+0  00000+0 0  9993
2 37238   0.0101 266.1218 0002649 156.1231 270.3583  1.00271272 49196
INTELSAT 28 (IS-28)     
1 37392U 11016A   25129.23291758 -.00000217  00000+0  00000+0 0  9998
2 37392   0.7618  87.8791 0004528 321.0426 230.5356  1.00271696 49239
INTELSAT 18 (IS-18)     
1 37834U 11056A   25129.48907682  .00000061  00000+0  00000+0 0  9996
2 37834   0.0183 274.1533 0001908 129.5496 179.9255  1.00272027 49796
INTELSAT 22 (IS-22)     
1 38098U 12011A   25129.11064963 -.00000053  00000+0  00000+0 0  9999
2 38098   0.0107 126.8052 0001726 279.6185 292.6981  1.00272030  3135
INTELSAT 19 (IS-19)     
1 38356U 12030A   25129.53586205 -.00000049  00000+0  00000+0 0  9996
2 38356   0.0140 298.5915 0003235 114.4380 173.4751  1.00269450 47461
INTELSAT 20 (IS-20)     
1 38740U 12043A   25128.96716571 -.00000019  00000+0  00000+0 0  9991
2 38740   0.0057 258.1728 0002307 289.1813  96.3642  1.00271184 46692
INTELSAT 21 (IS-21)     
1 38749U 12045A   25129.44800671 -.00000277  00000+0  00000+0 0  9997
2 38749   0.0111 296.0197 0002057 121.1654 273.6092  1.00269870 46590
INTELSAT 23 (IS-23)     
1 38867U 12057A   25129.20283907 -.00000278  00000+0  00000+0 0  9993
2 38867   0.0142 204.3954 0001068 288.3846 114.4999  1.00271442 45908
FM-6                    
1 39360U 13058A   25129.07333347 -.00000011  00000+0  00000+0 0  9998
2 39360   0.0163 299.7585 0000809 198.9570 358.6787  1.00272013 42011
INTELSAT 30 (IS-30)     
1 40271U 14062A   25129.41500648 -.00000140  00000+0  00000+0 0  9998
2 40271   0.0410  70.4434 0000472 126.6755  84.6903  1.00249869 38716
DIRECTV 14              
1 40333U 14078B   25129.51195311 -.00000118  00000+0  00000+0 0  9997
2 40333   0.0230 304.1852 0000132 270.0901  98.3918  1.00271061 38207
DIRECTV 15              
1 40663U 15026A   25129.25847115 -.00000095  00000+0  00000+0 0  9998
2 40663   0.0220  79.2792 0000547  77.4795  60.7352  1.00268369 36418
SKY MEXICO-1            
1 40664U 15026B   25129.21524587 -.00000228  00000+0  00000+0 0  9998
2 40664   0.0359  22.7145 0002764  48.1516 155.1370  1.00272340 36408
INTELSAT 34 (IS-34)     
1 40874U 15039A   25129.11581522 -.00000279  00000+0  00000+0 0  9992
2 40874   0.0200 278.6816 0000735  30.5972 264.0974  1.00270658 35577
INTELSAT 31 (IS-31)     
1 41581U 16035A   25129.07750373 -.00000144  00000+0  00000+0 0  9993
2 41581   0.0144 261.6594 0002082 331.0235 287.2989  1.00271237 32634
INTELSAT 36 (IS-36)     
1 41747U 16053A   25129.53832031 -.00000016  00000+0  00000+0 0  9998
2 41747   0.0156 351.7754 0001258 332.9030 165.2082  1.00271469 31890
INTELSAT 32E (IS-32E)   
1 41945U 17007B   25129.51625271 -.00000261  00000+0  00000+0 0  9994
2 41945   0.0048  59.0257 0000758 290.3782  20.8402  1.00270651 30209
INTELSAT 35E (IS-35E)   
1 42818U 17041A   25129.23230941 -.00000231  00000+0  00000+0 0  9994
2 42818   0.0153 272.8936 0002130 138.9311 224.6173  1.00270158 28765
INTELSAT 37E (IS-37E)   
1 42950U 17059A   25129.36294928 -.00000133  00000+0  00000+0 0  9990
2 42950   0.0037 346.9116 0002689  69.9098 283.2568  1.00271737 27997
AZERSPACE 2 (IS-38)     
1 43632U 18074A   25129.53371566  .00000145  00000+0  00000+0 0  9991
2 43632   0.0220 279.8883 0001673 132.6306  52.3113  1.00270406 24390
HORIZONS-3E             
1 43633U 18074B   25129.20126583 -.00000024  00000+0  00000+0 0  9990
2 43633   0.0351 139.0022 0000597 181.9631 147.7500  1.00272315 24299
AT&T T-16               
1 44333U 19034A   25129.25694234 -.00000108  00000+0  00000+0 0  9996
2 44333   0.0157  75.2850 0000355  57.8426  85.8279  1.00269891 21585
INTELSAT 39 (IS-39)     
1 44476U 19049B   25129.10865138  .00000040  00000+0  00000+0 0  9991
2 44476   0.0213 278.5769 0000287  57.9873 351.6623  1.00270518 21073
GALAXY 30 (G-30)        
1 46114U 20056C   25129.47328275  .00000045  00000+0  00000+0 0  9993
2 46114   0.0182 279.1520 0002312 130.9013 222.8571  1.00271200 17356
GALAXY 33 (G-33)        
1 54026U 22128A   25129.29832868  .00000086  00000+0  00000+0 0  9999
2 54026   0.0088 318.1411 0001887  85.9328 157.6928  1.00272585  9695
GALAXY 34 (G-34)        
1 54027U 22128B   25129.22359397  .00000066  00000+0  00000+0 0  9992
2 54027   0.0117 315.8142 0001462  92.4265 130.5462  1.00271674  9866
GALAXY 31 (G-31)        
1 54243U 22153A   25129.22197447  .00000020  00000+0  00000+0 0  9996
2 54243   0.0115 222.4377 0000966 137.1301 186.6248  1.00271939  9108
GALAXY 32 (G-32)        
1 54244U 22153B   25129.03239581 -.00000168  00000+0  00000+0 0  9996
2 54244   0.0167 316.7324 0002804  71.6310 119.3978  1.00272621  9090
GALAXY 35 (G-35)        
1 54741U 22170A   25129.27646644 -.00000155  00000+0  00000+0 0  9991
2 54741   0.0054 221.2033 0002022 185.9579 186.5950  1.00272428  8845
GALAXY 36 (G-36)        
1 54742U 22170B   25129.28118565 -.00000178  00000+0  00000+0 0  9994
2 54742   0.0143 260.6097 0002843 172.2960 166.6662  1.00272605  8729
GALAXY 37 (G-37)        
1 57493U 23112A   25129.26492343  .00000055  00000+0  00000+0 0  9997
2 57493   0.0133 298.0198 0001969 106.2242 151.4608  1.00271479  6491
